OBJECT_NAME,OBJECT_ID,EPOCH,MEAN_MOTION,ECCENTRICITY,INCLINATION,RA_OF_ASC_NODE,ARG_OF_PERICENTER,MEAN_ANOMALY,EPHEMERIS_TYPE,CLASSIFICATION_TYPE,NORAD_CAT_ID,ELEMENT_SET_NO,REV_AT_EPOCH,BSTAR,MEAN_MOTION_DOT,MEAN_MOTION_DDOT
HORN-R,2026-132F,2026-07-09T10:39:46.959264,15.05461380,.00192264,97.6839,253.9669,226.0665,133.8976,0,U,69507,999,411,.72042597E-4,.975E-5,0
STARLINK-37536,2026-133A,2026-07-09T10:48:10.790496,15.49325796,.00008971,53.1605,212.3219,70.7925,289.3181,0,U,69508,999,426,.1070928E-2,.59603E-3,0
STARLINK-37341,2026-133B,2026-07-09T17:02:24.539136,15.49320745,.00019966,53.1584,211.1006,105.0970,255.0260,0,U,69509,999,431,.2226318E-3,.11957E-3,0
STARLINK-36536,2026-133C,2026-07-10T06:00:02.000160,15.44010235,.00014477,53.1592,207.7946,69.3047,62.5475,0,U,69510,999,562,-.611717E-1,-.2506627E-1,0
STARLINK-37420,2026-133D,2026-07-10T06:00:02.000160,15.42717749,.00008936,53.1601,207.5404,57.3839,199.7401,0,U,69511,999,557,-.29942849E-1,-.1206865E-1,0
STARLINK-37511,2026-133E,2026-07-10T06:00:02.000160,15.42714317,.00015628,53.1596,207.5755,86.5235,152.6723,0,U,69512,999,557,-.62572227E-1,-.2459394E-1,0
STARLINK-37552,2026-133F,2026-07-09T15:28:41.930400,15.49313018,.00021891,53.1590,211.4026,56.2357,303.8860,0,U,69513,999,556,.55398516E-3,.30487E-3,0
STARLINK-37607,2026-133G,2026-07-10T06:00:02.000160,15.40159868,.0000805,53.1603,207.6530,108.2500,92.4536,0,U,69514,999,557,-.79873903E-1,-.2881812E-1,0
STARLINK-37232,2026-133H,2026-07-10T07:54:49.740768,15.49358286,.00013481,53.1592,207.8466,99.6026,260.5135,0,U,69515,999,440,.72370787E-3,.40078E-3,0
STARLINK-37323,2026-133J,2026-07-10T06:00:02.000160,15.42633482,.00013678,53.1592,207.4128,55.8607,262.0396,0,U,69516,999,557,-.27950037E-1,-.1130457E-1,0
STARLINK-37357,2026-133K,2026-07-10T00:45:00.845856,15.49317735,.00012156,53.1598,209.5444,94.5066,265.6082,0,U,69517,999,561,.34825103E-3,.18973E-3,0
STARLINK-37408,2026-133L,2026-07-10T06:00:02.000160,15.49309552,.00012981,53.1595,207.7616,43.8765,101.7513,0,U,69518,999,557,-.16842213E-4,-.1385E-4,0
STARLINK-37570,2026-133M,2026-07-10T07:58:39.715104,15.49378734,.00003763,53.1592,207.8605,276.0283,84.0683,0,U,69519,999,567,.63492368E-3,.35109E-3,0
STARLINK-37510,2026-133N,2026-07-10T07:51:57.683808,15.49329528,.00005565,53.1615,207.8316,311.8309,48.2652,0,U,69520,999,567,.50507415E-3,.27762E-3,0
STARLINK-37586,2026-133P,2026-07-10T06:00:02.000160,15.39151050,.00017546,53.1602,207.3175,72.9404,288.9459,0,U,69521,999,558,-.24876299E-1,-.900859E-2,0
STARLINK-37379,2026-133Q,2026-07-10T06:00:02.000160,15.49313232,.0001539,53.1601,207.8939,84.5214,353.8249,0,U,69522,999,562,-.99904886E-4,-.6002E-4,0
STARLINK-37429,2026-133R,2026-07-10T01:55:03.484416,15.49353638,.00054557,53.1641,209.1283,111.5890,248.5701,0,U,69523,999,563,-.9334432E-4,-.5652E-4,0
STARLINK-37352,2026-133S,2026-07-10T06:00:02.000160,15.49310655,.00010885,53.1601,207.8767,84.6557,1.4292,0,U,69524,999,562,-.63257779E-4,-.3965E-4,0
STARLINK-37490,2026-133T,2026-07-10T06:00:02.000160,15.48178705,.00012777,53.1597,207.4109,89.3633,225.5354,0,U,69525,999,562,-.54413281E-1,-.2568766E-1,0
STARLINK-37438,2026-133U,2026-07-10T07:30:56.759616,15.49331945,.00011071,53.1598,207.7307,84.1071,276.0065,0,U,69526,999,567,.48373652E-3,.26568E-3,0
STARLINK-37484,2026-133V,2026-07-10T06:00:02.000160,15.43409759,.00007894,53.1593,207.3413,86.0711,263.2253,0,U,69527,999,563,-.57508599E-1,-.2329536E-1,0
STARLINK-37523,2026-133W,2026-07-10T06:00:02.000160,15.49310594,.00010953,53.1600,207.8432,85.1637,16.3315,0,U,69528,999,563,-.44782743E-4,-.2938E-4,0
STARLINK-37369,2026-133X,2026-07-10T00:50:07.288512,15.49328278,.00010862,53.1582,208.8300,80.1754,279.9378,0,U,69529,999,563,.71545652E-3,.39571E-3,0
STARLINK-37670,2026-133Y,2026-07-10T01:11:41.075808,15.49353957,.00008852,53.1604,208.9261,78.6600,281.4508,0,U,69530,999,563,.53602301E-3,.29523E-3,0
STARLINK-37897,2026-133Z,2026-07-10T06:00:02.000160,15.47175430,.00011702,53.1604,207.2989,54.8741,312.6747,0,U,69531,999,558,-.27593455E-1,-.1288003E-1,0
STARLINK-37933,2026-133AA,2026-07-10T06:00:02.000160,15.35401875,.00014064,53.1601,207.8642,102.6496,343.3023,0,U,69532,999,558,-.51067509E-3,-.18152E-3,0
STARLINK-37890,2026-133AB,2026-07-10T06:00:02.000160,15.34401068,.00013789,53.1596,207.7760,89.9917,38.1691,0,U,69533,999,558,-.64157064E-3,-.21991E-3,0
STARLINK-37407,2026-133AC,2026-07-10T06:00:02.000160,15.33552427,.00013432,53.1590,207.6164,89.5847,116.7538,0,U,69534,999,563,-.4733503E-3,-.15909E-3,0
STARLINK-37888,2026-133AD,2026-07-10T06:00:02.000160,15.34398435,.00016044,53.1590,207.6778,61.5670,113.1274,0,U,69535,999,558,-.52849951E-3,-.18189E-3,0
STARLINK-37889,2026-133AE,2026-07-10T06:00:02.000160,15.49308303,.00010376,53.1590,208.2768,97.1192,153.6162,0,U,69536,999,558,.12071789E-3,.6271E-4,0
