HORN-R                  
1 69507U 26132F   26190.44429351  .00000975  00000+0  72043-4 0  9991
2 69507  97.6839 253.9669 0019226 226.0665 133.8976 15.05461380  4114
STARLINK-37536          
1 69508U 26133A   26190.45012489  .00059603  00000+0  10709-2 0  9995
2 69508  53.1605 212.3219 0000897  70.7925 289.3181 15.49325796  4269
STARLINK-37341          
1 69509U 26133B   26190.71000624  .00011957  00000+0  22263-3 0  9992
2 69509  53.1584 211.1006 0001996 105.0970 255.0260 15.49320745  4313
STARLINK-36536          
1 69510U 26133C   26191.25002315 -.02506627  00000+0 -61172-1 0  9990
2 69510  53.1592 207.7946 0001447  69.3047  62.5475 15.44010235  5625
STARLINK-37420          
1 69511U 26133D   26191.25002315 -.01206865  00000+0 -29943-1 0  9991
2 69511  53.1601 207.5404 0000893  57.3839 199.7401 15.42717749  5572
STARLINK-37511          
1 69512U 26133E   26191.25002315 -.02459394  00000+0 -62572-1 0  9995
2 69512  53.1596 207.5755 0001562  86.5235 152.6723 15.42714317  5576
STARLINK-37552          
1 69513U 26133F   26190.64492975  .00030487  00000+0  55399-3 0  9998
2 69513  53.1590 211.4026 0002189  56.2357 303.8860 15.49313018  5562
STARLINK-37607          
1 69514U 26133G   26191.25002315 -.02881812  00000+0 -79874-1 0  9994
2 69514  53.1603 207.6530 0000805 108.2500  92.4536 15.40159868  5570
STARLINK-37232          
1 69515U 26133H   26191.32974237  .00040078  00000+0  72371-3 0  9998
2 69515  53.1592 207.8466 0001348  99.6026 260.5135 15.49358286  4405
STARLINK-37323          
1 69516U 26133J   26191.25002315 -.01130457  00000+0 -27950-1 0  9995
2 69516  53.1592 207.4128 0001367  55.8607 262.0396 15.42633482  5579
STARLINK-37357          
1 69517U 26133K   26191.03125979  .00018973  00000+0  34825-3 0  9990
2 69517  53.1598 209.5444 0001215  94.5066 265.6082 15.49317735  5614
STARLINK-37408          
1 69518U 26133L   26191.25002315 -.00001385  00000+0 -16842-4 0  9994
2 69518  53.1595 207.7616 0001298  43.8765 101.7513 15.49309552  5579
STARLINK-37570          
1 69519U 26133M   26191.33240411  .00035109  00000+0  63492-3 0  9996
2 69519  53.1592 207.8605 0000376 276.0283  84.0683 15.49378734  5677
STARLINK-37510          
1 69520U 26133N   26191.32775097  .00027762  00000+0  50507-3 0  9999
2 69520  53.1615 207.8316 0000556 311.8309  48.2652 15.49329528  5676
STARLINK-37586          
1 69521U 26133P   26191.25002315 -.00900859  00000+0 -24876-1 0  9995
2 69521  53.1602 207.3175 0001754  72.9404 288.9459 15.39151050  5583
STARLINK-37379          
1 69522U 26133Q   26191.25002315 -.00006002  00000+0 -99905-4 0  9991
2 69522  53.1601 207.8939 0001539  84.5214 353.8249 15.49313232  5622
STARLINK-37429          
1 69523U 26133R   26191.07990144 -.00005652  00000+0 -93344-4 0  9999
2 69523  53.1641 209.1283 0005455 111.5890 248.5701 15.49353638  5634
STARLINK-37352          
1 69524U 26133S   26191.25002315 -.00003965  00000+0 -63258-4 0  9990
2 69524  53.1601 207.8767 0001088  84.6557   1.4292 15.49310655  5623
STARLINK-37490          
1 69525U 26133T   26191.25002315 -.02568766  00000+0 -54413-1 0  9998
2 69525  53.1597 207.4109 0001277  89.3633 225.5354 15.48178705  5626
STARLINK-37438          
1 69526U 26133U   26191.31315694  .00026568  00000+0  48374-3 0  9999
2 69526  53.1598 207.7307 0001107  84.1071 276.0065 15.49331945  5675
STARLINK-37484          
1 69527U 26133V   26191.25002315 -.02329536  00000+0 -57509-1 0  9999
2 69527  53.1593 207.3413 0000789  86.0711 263.2253 15.43409759  5638
STARLINK-37523          
1 69528U 26133W   26191.25002315 -.00002938  00000+0 -44783-4 0  9995
2 69528  53.1600 207.8432 0001095  85.1637  16.3315 15.49310594  5632
STARLINK-37369          
1 69529U 26133X   26191.03480658  .00039571  00000+0  71546-3 0  9999
2 69529  53.1582 208.8300 0001086  80.1754 279.9378 15.49328278  5636
STARLINK-37670          
1 69530U 26133Y   26191.04978097  .00029523  00000+0  53602-3 0  9990
2 69530  53.1604 208.9261 0000885  78.6600 281.4508 15.49353957  5633
STARLINK-37897          
1 69531U 26133Z   26191.25002315 -.01288003  00000+0 -27593-1 0  9996
2 69531  53.1604 207.2989 0001170  54.8741 312.6747 15.47175430  5585
STARLINK-37933          
1 69532U 26133AA  26191.25002315 -.00018152  00000+0 -51068-3 0  9998
2 69532  53.1601 207.8642 0001406 102.6496 343.3023 15.35401875  5586
STARLINK-37890          
1 69533U 26133AB  26191.25002315 -.00021991  00000+0 -64157-3 0  9997
2 69533  53.1596 207.7760 0001378  89.9917  38.1691 15.34401068  5586
STARLINK-37407          
1 69534U 26133AC  26191.25002315 -.00015909  00000+0 -47335-3 0  9999
2 69534  53.1590 207.6164 0001343  89.5847 116.7538 15.33552427  5632
STARLINK-37888          
1 69535U 26133AD  26191.25002315 -.00018189  00000+0 -52850-3 0  9991
2 69535  53.1590 207.6778 0001604  61.5670 113.1274 15.34398435  5588
STARLINK-37889          
1 69536U 26133AE  26191.25002315  .00006271  00000+0  12072-3 0  9991
2 69536  53.1590 208.2768 0001037  97.1192 153.6162 15.49308303  5585
